NORAD_CAT_ID,OBJECT_NAME,OBJECT_TYPE,EPOCH,MEAN_MOTION,ECCENTRICITY,INCLINATION,RA_OF_ASC_NODE,ARG_OF_PERICENTER,MEAN_ANOMALY,BSTAR,MEAN_MOTION_DOT,MEAN_MOTION_DDOT,TLE_LINE0,TLE_LINE1,TLE_LINE2,SEMIMAJOR_AXIS,PERIOD,APOGEE,PERIGEE,DECAYED
53832.0,STARLINK-4747,PAYLOAD,2023-04-26 02:25:05,15.0877999,9.39e-05,53.2158,331.1704,75.4072,284.7024,-0.00087521,-0.00014166,0.0,0 STARLINK-4747,1 53832U 22114Q   23116.10076010 -.00014166  00000-0 -87521-3 0  9995,2 53832  53.2158 331.1704 0000939  75.4072 284.7024 15.08779990 33998,6918.064,95.441,540.578,539.279,0.0
53832.0,STARLINK-4747,PAYLOAD,2023-04-26 18:18:56,15.08821688,8.82e-05,53.2158,328.1957,53.7997,306.3077,0.0010663,0.00016714,0.0,0 STARLINK-4747,1 53832U 22114Q   23116.76315585  .00016714  00000-0  10663-2 0  9991,2 53832  53.2158 328.1957 0000882  53.7997 306.3077 15.08821688 34639,6917.936,95.439,540.412,539.191,0.0
53832.0,STARLINK-4747,PAYLOAD,2023-04-27 02:15:52,15.0884162,0.0001058,53.2171,326.7081,39.0335,321.0734,0.00097873,0.00015323,0.0,0 STARLINK-4747,1 53832U 22114Q   23117.09435225  .00015323  00000-0  97873-3 0  9996,2 53832  53.2171 326.7081 0001058  39.0335 321.0734 15.08841620 34143,6917.875,95.437,540.472,539.009,0.0
53832.0,STARLINK-4747,PAYLOAD,2023-04-27 13:23:34,15.08848928,0.0001231,53.2171,324.6267,56.881,303.23,0.00082889,0.00012932,0.0,0 STARLINK-4747,1 53832U 22114Q   23117.55803721  .00012932  00000-0  82889-3 0  9991,2 53832  53.2171 324.6267 0001231  56.8810 303.2300 15.08848928 34750,6917.853,95.437,540.57,538.867,0.0
53832.0,STARLINK-4747,PAYLOAD,2023-04-27 21:20:29,15.08857656,0.0001079,53.2162,323.1414,57.3723,302.7373,0.00077273,0.00012037,0.0,0 STARLINK-4747,1 53832U 22114Q   23117.88923045  .00012037  00000-0  77273-3 0  9996,2 53832  53.2162 323.1414 0001079  57.3723 302.7373 15.08857656 34265,6917.826,95.436,540.438,538.945,0.0
53832.0,STARLINK-4747,PAYLOAD,2023-04-28 19:35:52,15.08851204,9.78e-05,53.215,318.9789,47.8665,312.241,-1.7181e-05,-5.61e-06,0.0,0 STARLINK-4747,1 53832U 22114Q   23118.81658402 -.00000561  00000-0 -17181-4 0  9996,2 53832  53.2150 318.9789 0000978  47.8665 312.2410 15.08851204 34402,6917.846,95.437,540.388,539.035,0.0
53832.0,STARLINK-4747,PAYLOAD,2023-04-29 13:05:07,15.08840858,9.01e-05,53.2151,315.7073,56.4678,303.64,-2.6412e-05,-7.08e-06,0.0,0 STARLINK-4747,1 53832U 22114Q   23119.54522715 -.00000708  00000-0 -26412-4 0  9994,2 53832  53.2151 315.7073 0000901  56.4678 303.6400 15.08840858 35058,6917.878,95.438,540.366,539.119,0.0
53832.0,STARLINK-4747,PAYLOAD,2023-04-29 17:51:16,15.08844861,9.82e-05,53.2152,314.8161,42.927,317.1798,-2.5693e-05,-6.97e-06,0.0,0 STARLINK-4747,1 53832U 22114Q   23119.74394616 -.00000697  00000-0 -25693-4 0  9990,2 53832  53.2152 314.8161 0000982  42.9270 317.1798 15.08844861 34545,6917.866,95.437,540.41,539.051,0.0
53832.0,STARLINK-4747,PAYLOAD,2023-04-30 00:12:48,15.08867954,4.99e-05,53.2155,313.6244,66.2156,293.8888,0.00027256,4.056e-05,0.0,0 STARLINK-4747,1 53832U 22114Q   23120.00888900  .00004056  00000-0  27256-3 0  9992,2 53832  53.2155 313.6244 0000499  66.2156 293.8888 15.08867954 34584,6917.795,95.436,540.005,539.315,0.0
53832.0,STARLINK-4747,PAYLOAD,2023-04-30 14:31:16,15.08855551,8.01e-05,53.2146,310.9497,65.2308,294.8768,0.00026574,3.946e-05,0.0,0 STARLINK-4747,1 53832U 22114Q   23120.60505331  .00003946  00000-0  26574-3 0  9991,2 53832  53.2146 310.9497 0000801  65.2308 294.8768 15.08855551 34677,6917.833,95.437,540.252,539.144,0.0
53832.0,STARLINK-4747,PAYLOAD,2023-05-01 12:46:41,15.08827512,9.8e-05,53.214,306.7852,92.6963,267.4141,-0.00022079,-3.799e-05,0.0,0 STARLINK-4747,1 53832U 22114Q   23121.53242337 -.00003799  00000-0 -22079-3 0  9992,2 53832  53.2140 306.7852 0000980  92.6963 267.4141 15.08827512 35351,6917.919,95.438,540.462,539.106,0.0
53832.0,STARLINK-4747,PAYLOAD,2023-05-01 15:57:27,15.08824261,7.39e-05,53.2144,306.1905,97.2887,262.8189,-0.00026133,-4.442e-05,0.0,0 STARLINK-4747,1 53832U 22114Q   23121.66490523 -.00004442  00000-0 -26133-3 0  9999,2 53832  53.2144 306.1905 0000739  97.2887 262.8189 15.08824261 34837,6917.928,95.439,540.305,539.282,0.0
53832.0,STARLINK-4747,PAYLOAD,2023-05-01 19:08:14,15.08824862,7.34e-05,53.2155,305.596,102.0611,258.0463,-0.00025869,-4.4e-05,0.0,0 STARLINK-4747,1 53832U 22114Q   23121.79738592 -.00004400  00000-0 -25869-3 0  9993,2 53832  53.2155 305.5960 0000734 102.0611 258.0463 15.08824862 35399,6917.927,95.439,540.299,539.284,0.0
53832.0,STARLINK-4747,PAYLOAD,2023-05-02 11:02:05,15.08834544,5.65e-05,53.2159,302.6217,112.3018,247.8034,-9.314e-05,-1.769e-05,0.0,0 STARLINK-4747,1 53832U 22114Q   23122.45978376 -.00001769  00000-0 -93140-4 0  9996,2 53832  53.2159 302.6217 0000565 112.3018 247.8034 15.08834544 35492,6917.897,95.438,540.153,539.371,0.0
53832.0,STARLINK-4747,PAYLOAD,2023-05-02 20:34:24,15.08843543,5.35e-05,53.2158,300.8384,100.544,259.5613,0.00054422,8.385e-05,0.0,0 STARLINK-4747,1 53832U 22114Q   23122.85722568  .00008385  00000-0  54422-3 0  9998,2 53832  53.2158 300.8384 0000535 100.5440 259.5613 15.08843543 35550,6917.87,95.437,540.105,539.364,0.0
53832.0,STARLINK-4747,PAYLOAD,2023-05-03 12:28:16,15.08835265,6.22e-05,53.216,297.8655,96.3067,263.7996,0.00017024,2.422e-05,0.0,0 STARLINK-4747,1 53832U 22114Q   23123.51963143  .00002422  00000-0  17024-3 0  9991,2 53832  53.2160 297.8655 0000622  96.3067 263.7996 15.08835265 35118,6917.895,95.438,540.19,539.33,0.0
53832.0,STARLINK-4747,PAYLOAD,2023-05-03 22:00:34,15.08844566,6.69e-05,53.2161,296.0811,98.9141,261.1927,0.00034151,5.152e-05,0.0,0 STARLINK-4747,1 53832U 22114Q   23123.91706984  .00005152  00000-0  34151-3 0  9996,2 53832  53.2161 296.0811 0000669  98.9141 261.1927 15.08844566 35712,6917.866,95.437,540.194,539.269,0.0
53832.0,STARLINK-4747,PAYLOAD,2023-05-04 04:22:07,15.08841654,6.13e-05,53.2153,294.8884,82.8232,277.283,0.00024181,3.563e-05,0.0,0 STARLINK-4747,1 53832U 22114Q   23124.18203084  .00003563  00000-0  24181-3 0  9995,2 53832  53.2153 294.8884 0000613  82.8232 277.2830 15.08841654 35751,6917.875,95.437,540.164,539.316,0.0
53832.0,STARLINK-4747,PAYLOAD,2023-05-04 20:15:58,15.08852412,6e-05,53.2148,291.9153,74.652,285.4539,0.0005666,8.744e-05,0.0,0 STARLINK-4747,1 53832U 22114Q   23124.84442840  .00008744  00000-0  56660-3 0  9996,2 53832  53.2148 291.9153 0000600  74.6520 285.4539 15.08852412 35310,6917.842,95.437,540.123,539.292,0.0
53832.0,STARLINK-4747,PAYLOAD,2023-05-05 04:12:54,15.08847338,4.19e-05,53.2158,290.4289,88.2312,271.8728,0.00032755,4.93e-05,0.0,0 STARLINK-4747,1 53832U 22114Q   23125.17562856  .00004930  00000-0  32755-3 0  9995,2 53832  53.2158 290.4289 0000419  88.2312 271.8728 15.08847338 35368,6917.858,95.437,540.013,539.433,0.0
53832.0,STARLINK-4747,PAYLOAD,2023-05-05 15:20:36,15.08838176,7.12e-05,53.214,288.3483,89.6209,270.4864,6.8499e-05,8.03e-06,0.0,0 STARLINK-4747,1 53832U 22114Q   23125.63931224  .00000803  00000-0  68499-4 0  9995,2 53832  53.2140 288.3483 0000712  89.6209 270.4864 15.08838176 35431,6917.886,95.438,540.244,539.258,0.0
53832.0,STARLINK-4747,PAYLOAD,2023-05-05 18:31:22,15.08843315,6.65e-05,53.2142,287.7537,70.1539,289.9524,0.00016368,2.319e-05,0.0,0 STARLINK-4747,1 53832U 22114Q   23125.77179157  .00002319  00000-0  16368-3 0  9990,2 53832  53.2142 287.7537 0000665  70.1539 289.9524 15.08843315 35994,6917.87,95.437,540.195,539.275,0.0
53832.0,STARLINK-4747,PAYLOAD,2023-05-06 10:25:14,15.08842252,9.74e-05,53.214,284.7807,61.569,298.5401,9.5631e-05,1.235e-05,0.0,0 STARLINK-4747,1 53832U 22114Q   23126.43419319  .00001235  00000-0  95631-4 0  9998,2 53832  53.2140 284.7807 0000974  61.5690 298.5401 15.08842252 36095,6917.874,95.437,540.412,539.065,0.0
53832.0,STARLINK-4747,PAYLOAD,2023-05-07 03:54:28,15.08846468,5.7e-05,53.2146,281.5103,58.582,301.5228,0.00021595,3.151e-05,0.0,0 STARLINK-4747,1 53832U 22114Q   23127.16283100  .00003151  00000-0  21595-3 0  9992,2 53832  53.2146 281.5103 0000570  58.5820 301.5228 15.08846468 35665,6917.861,95.437,540.12,539.331,0.0
53832.0,STARLINK-4747,PAYLOAD,2023-05-07 13:26:47,15.08833179,7.46e-05,53.2144,279.7253,79.0094,281.0982,1.9288e-05,1.9e-07,0.0,0 STARLINK-4747,1 53832U 22114Q   23127.56027755  .00000019  00000-0  19288-4 0  9995,2 53832  53.2144 279.7253 0000746  79.0094 281.0982 15.08833179 35725,6917.901,95.438,540.282,539.25,0.0
53832.0,STARLINK-4747,PAYLOAD,2023-05-07 16:37:34,15.0883625,5.69e-05,53.2146,279.1305,85.6788,274.4269,8.5892e-05,1.08e-05,0.0,0 STARLINK-4747,1 53832U 22114Q   23127.69275720  .00001080  00000-0  85892-4 0  9999,2 53832  53.2146 279.1305 0000569  85.6788 274.4269 15.08836250 36284,6917.892,95.438,540.15,539.363,0.0
53832.0,STARLINK-4747,PAYLOAD,2023-05-08 16:28:20,15.08848624,5.59e-05,53.2149,274.6703,80.4272,279.6784,0.00022389,3.278e-05,0.0,0 STARLINK-4747,1 53832U 22114Q   23128.68635127  .00003278  00000-0  22389-3 0  9992,2 53832  53.2149 274.6703 0000559  80.4272 279.6784 15.08848624 35892,6917.854,95.437,540.106,539.332,0.0
53832.0,STARLINK-4747,PAYLOAD,2023-05-09 13:08:22,15.08837612,3.95e-05,53.2148,270.8049,62.0747,298.0285,0.00013301,1.83e-05,0.0,0 STARLINK-4747,1 53832U 22114Q   23129.54747711  .00001830  00000-0  13301-3 0  9997,2 53832  53.2148 270.8049 0000395  62.0747 298.0285 15.08837612 36564,6917.888,95.438,540.026,539.479,0.0
53832.0,STARLINK-4747,PAYLOAD,2023-05-10 12:59:08,15.08841582,7.93e-05,53.2161,266.3493,123.5086,236.5982,-1.6959e-05,-5.58e-06,0.0,0 STARLINK-4747,1 53832U 22114Q   23130.54107586 -.00000558  00000-0 -16959-4 0  9990,2 53832  53.2161 266.3493 0000793 123.5086 236.5982 15.08841582 36712,6917.876,95.437,540.289,539.192,0.0
53832.0,STARLINK-4747,PAYLOAD,2023-05-10 17:45:18,15.08844549,6.48e-05,53.2158,265.4516,97.4968,262.6098,2.6086e-05,1.28e-06,0.0,0 STARLINK-4747,1 53832U 22114Q   23130.73979276  .00000128  00000-0  26086-4 0  9997,2 53832  53.2158 265.4516 0000648  97.4968 262.6098 15.08844549 36209,6917.866,95.437,540.18,539.283,0.0
